STARLINK-1289
1 25391C 20019AH  21325.11701337 -.00001518  00000-0 -10174-3 0  3256
2 25391  53.0541 352.7092 0001216  72.9886 203.1900 15.06400449    19
